{"type": "FeatureCollection", "features": [ {"type": "Feature", "properties": {"norad_id": 33676, "name": "FENGYUN 1C DEB", "group": "fengyun-1c-debris", "lat": 15.40407247557062, "lon": -172.35125487177189, "alt_km": 740.0948369564476, "timestamp": "2025-12-06T22:38:43.015067+00:00", "meta": {"OBJECT_NAME": "FENGYUN 1C DEB", "OBJECT_ID": "1999-025DFM", "EPOCH": "2025-12-05T07:25:48.733248", "MEAN_MOTION": 14.355515, "ECCENTRICITY": 0.02052076, "INCLINATION": 99.0967, "RA_OF_ASC_NODE": 3.3953, "ARG_OF_PERICENTER": 91.243, "MEAN_ANOMALY": 271.227, "EPHEMERIS_TYPE": 0, "CLASSIFICATION_TYPE": "U", "NORAD_CAT_ID": 33676, "ELEMENT_SET_NO": 999, "REV_AT_EPOCH": 65204, "BSTAR": 0.00023702104, "MEAN_MOTION_DOT": 8.12e-06, "MEAN_MOTION_DDOT": 0}, "tle": {"line1": "1 33676U 99025DFM 25339.30959182  .00000812  00000+0  23702-3 0  9996", "line2": "2 33676  99.0967   3.3953 0205207  91.2430 271.2270 14.35551500652042"}}, "geometry": {"type": "Point", "coordinates": [-172.35125487177189, 15.40407247557062]}}, {"type": "Feature", "properties": {"norad_id": 33678, "name": "FENGYUN 1C DEB", "group": "fengyun-1c-debris", "lat": -40.13828209350492, "lon": -141.6658311887466, "alt_km": 618.4316688016424, "timestamp": "2025-12-06T22:38:43.015077+00:00", "meta": {"OBJECT_NAME": "FENGYUN 1C DEB", "OBJECT_ID": "1999-025DFP", "EPOCH": "2025-12-06T09:59:52.156896", "MEAN_MOTION": 14.47279188, "ECCENTRICITY": 0.02049845, "INCLINATION": 99.0439, "RA_OF_ASC_NODE": 45.4893, "ARG_OF_PERICENTER": 255.6599, "MEAN_ANOMALY": 102.1757, "EPHEMERIS_TYPE": 0, "CLASSIFICATION_TYPE": "U", "NORAD_CAT_ID": 33678, "ELEMENT_SET_NO": 999, "REV_AT_EPOCH": 95004, "BSTAR": 0.0013249114, "MEAN_MOTION_DOT": 6.253e-05, "MEAN_MOTION_DDOT": 0}, "tle": {"line1": "1 33678U 99025DFP 25340.41657589  .00006253  00000+0  13249-2 0  9997", "line2": "2 33678  99.0439  45.4893 0204984 255.6599 102.1757 14.47279188950046"}}, "geometry": {"type": "Point", "coordinates": [-141.6658311887466, -40.13828209350492]}}, {"type": "Feature", "properties": {"norad_id": 33679, "name": "FENGYUN 1C DEB", "group": "fengyun-1c-debris", "lat": 38.22613541813065, "lon": 38.93299139964232, "alt_km": 538.599332842914, "timestamp": "2025-12-06T22:38:43.015087+00:00", "meta": {"OBJECT_NAME": "FENGYUN 1C DEB", "OBJECT_ID": "1999-025DFQ", "EPOCH": "2025-12-06T03:17:32.089344", "MEAN_MOTION": 15.02161548, "ECCENTRICITY": 0.0150022, "INCLINATION": 99.348, "RA_OF_ASC_NODE": 45.4173, "ARG_OF_PERICENTER": 320.9938, "MEAN_ANOMALY": 38.0536, "EPHEMERIS_TYPE": 0, "CLASSIFICATION_TYPE": "U", "NORAD_CAT_ID": 33679, "ELEMENT_SET_NO": 999, "REV_AT_EPOCH": 94024, "BSTAR": 0.0019675356, "MEAN_MOTION_DOT": 0.00033099, "MEAN_MOTION_DDOT": 0}, "tle": {"line1": "1 33679U 99025DFQ 25340.13717696  .00033099  00000+0  19675-2 0  9990", "line2": "2 33679  99.3480  45.4173 0150022 320.9938  38.0536 15.02161548940248"}}, "geometry": {"type": "Point", "coordinates": [38.93299139964232, 38.22613541813065]}}, {"type": "Feature", "properties": {"norad_id": 33682, "name": "FENGYUN 1C DEB", "group": "fengyun-1c-debris", "lat": -17.683263492451637, "lon": 30.120414558021977, "alt_km": 817.3517510667507, "timestamp": "2025-12-06T22:38:43.015097+00:00", "meta": {"OBJECT_NAME": "FENGYUN 1C DEB", "OBJECT_ID": "1999-025DFT", "EPOCH": "2025-12-06T14:18:47.301984", "MEAN_MOTION": 14.26619506, "ECCENTRICITY": 0.00290838, "INCLINATION": 99.4201, "RA_OF_ASC_NODE": 26.7131, "ARG_OF_PERICENTER": 100.1343, "MEAN_ANOMALY": 260.3118, "EPHEMERIS_TYPE": 0, "CLASSIFICATION_TYPE": "U", "NORAD_CAT_ID": 33682, "ELEMENT_SET_NO": 999, "REV_AT_EPOCH": 91610, "BSTAR": 0.0025477144, "MEAN_MOTION_DOT": 6.136e-05, "MEAN_MOTION_DDOT": 0}, "tle": {"line1": "1 33682U 99025DFT 25340.59638081  .00006136  00000+0  25477-2 0  9993", "line2": "2 33682  99.4201  26.7131 0029083 100.1343 260.3118 14.26619506916101"}}, "geometry": {"type": "Point", "coordinates": [30.120414558021977, -17.683263492451637]}}, {"type": "Feature", "properties": {"norad_id": 33684, "name": "FENGYUN 1C DEB", "group": "fengyun-1c-debris", "lat": 79.34974043447343, "lon": -22.281050739051185, "alt_km": 623.6587312474394, "timestamp": "2025-12-06T22:38:43.015107+00:00", "meta": {"OBJECT_NAME": "FENGYUN 1C DEB", "OBJECT_ID": "1999-025DFV", "EPOCH": "2025-12-03T22:32:33.696960", "MEAN_MOTION": 14.72837728, "ECCENTRICITY": 0.0288949, "INCLINATION": 99.0677, "RA_OF_ASC_NODE": 32.4922, "ARG_OF_PERICENTER": 7.9289, "MEAN_ANOMALY": 352.634, "EPHEMERIS_TYPE": 0, "CLASSIFICATION_TYPE": "U", "NORAD_CAT_ID": 33684, "ELEMENT_SET_NO": 999, "REV_AT_EPOCH": 92859, "BSTAR": 0.0014257, "MEAN_MOTION_DOT": 0.00017805, "MEAN_MOTION_DDOT": 0}, "tle": {"line1": "1 33684U 99025DFV 25337.93927890  .00017805  00000+0  14257-2 0  9997", "line2": "2 33684  99.0677  32.4922 0288949   7.9289 352.6340 14.72837728928596"}}, "geometry": {"type": "Point", "coordinates": [-22.281050739051185, 79.34974043447343]}}, {"type": "Feature", "properties": {"norad_id": 33687, "name": "FENGYUN 1C DEB", "group": "fengyun-1c-debris", "lat": 6.84473132061573, "lon": -15.50576616946425, "alt_km": 434.1041386684765, "timestamp": "2025-12-06T22:38:43.015117+00:00", "meta": {"OBJECT_NAME": "FENGYUN 1C DEB", "OBJECT_ID": "1999-025DFY", "EPOCH": "2025-12-02T06:16:02.710272", "MEAN_MOTION": 15.17405521, "ECCENTRICITY": 0.0119547, "INCLINATION": 98.9972, "RA_OF_ASC_NODE": 340.0261, "ARG_OF_PERICENTER": 11.3354, "MEAN_ANOMALY": 349.0524, "EPHEMERIS_TYPE": 0, "CLASSIFICATION_TYPE": "U", "NORAD_CAT_ID": 33687, "ELEMENT_SET_NO": 999, "REV_AT_EPOCH": 71349, "BSTAR": 0.0018833, "MEAN_MOTION_DOT": 0.00045488, "MEAN_MOTION_DDOT": 0}, "tle": {"line1": "1 33687U 99025DFY 25336.26114248  .00045488  00000+0  18833-2 0  9992", "line2": "2 33687  98.9972 340.0261 0119547  11.3354 349.0524 15.17405521713495"}}, "geometry": {"type": "Point", "coordinates": [-15.50576616946425, 6.84473132061573]}}, {"type": "Feature", "properties": {"norad_id": 33688, "name": "FENGYUN 1C DEB", "group": "fengyun-1c-debris", "lat": -50.28753651844122, "lon": -109.69833060206375, "alt_km": 721.9714624422631, "timestamp": "2025-12-06T22:38:43.015127+00:00", "meta": {"OBJECT_NAME": "FENGYUN 1C DEB", "OBJECT_ID": "1999-025DFZ", "EPOCH": "2025-12-06T13:16:02.611200", "MEAN_MOTION": 14.45408415, "ECCENTRICITY": 0.00537309, "INCLINATION": 99.3503, "RA_OF_ASC_NODE": 81.3135, "ARG_OF_PERICENTER": 280.6676, "MEAN_ANOMALY": 78.8464, "EPHEMERIS_TYPE": 0, "CLASSIFICATION_TYPE": "U", "NORAD_CAT_ID": 33688, "ELEMENT_SET_NO": 999, "REV_AT_EPOCH": 91392, "BSTAR": 0.0048076186, "MEAN_MOTION_DOT": 0.0001721, "MEAN_MOTION_DDOT": 0}, "tle": {"line1": "1 33688U 99025DFZ 25340.55280800  .00017210  00000+0  48076-2 0  9992", "line2": "2 33688  99.3503  81.3135 0053730 280.6676  78.8464 14.45408415913920"}}, "geometry": {"type": "Point", "coordinates": [-109.69833060206375, -50.28753651844122]}}, {"type": "Feature", "properties": {"norad_id": 33689, "name": "FENGYUN 1C DEB", "group": "fengyun-1c-debris", "lat": -79.01945589854232, "lon": 47.905524451944494, "alt_km": 759.0681765428981, "timestamp": "2025-12-06T22:38:43.015137+00:00", "meta": {"OBJECT_NAME": "FENGYUN 1C DEB", "OBJECT_ID": "1999-025DGA", "EPOCH": "2025-11-29T19:02:12.805728", "MEAN_MOTION": 14.44995922, "ECCENTRICITY": 0.00478162, "INCLINATION": 99.5667, "RA_OF_ASC_NODE": 339.4956, "ARG_OF_PERICENTER": 189.1023, "MEAN_ANOMALY": 349.9963, "EPHEMERIS_TYPE": 0, "CLASSIFICATION_TYPE": "U", "NORAD_CAT_ID": 33689, "ELEMENT_SET_NO": 999, "REV_AT_EPOCH": 69343, "BSTAR": 0.0010237814, "MEAN_MOTION_DOT": 3.568e-05, "MEAN_MOTION_DDOT": 0}, "tle": {"line1": "1 33689U 99025DGA 25333.79320377  .00003568  00000+0  10238-2 0  9995", "line2": "2 33689  99.5667 339.4956 0047816 189.1023 349.9963 14.44995922693439"}}, "geometry": {"type": "Point", "coordinates": [47.905524451944494, -79.01945589854232]}}, {"type": "Feature", "properties": {"norad_id": 33690, "name": "FENGYUN 1C DEB", "group": "fengyun-1c-debris", "lat": 35.810621998181645, "lon": -94.55327839397282, "alt_km": 713.4204146669053, "timestamp": "2025-12-06T22:38:43.015147+00:00", "meta": {"OBJECT_NAME": "FENGYUN 1C DEB", "OBJECT_ID": "1999-025DGB", "EPOCH": "2025-12-06T05:26:31.852320", "MEAN_MOTION": 14.51282655, "ECCENTRICITY": 0.00308986, "INCLINATION": 98.6133, "RA_OF_ASC_NODE": 78.4343, "ARG_OF_PERICENTER": 70.1588, "MEAN_ANOMALY": 290.2932, "EPHEMERIS_TYPE": 0, "CLASSIFICATION_TYPE": "U", "NORAD_CAT_ID": 33690, "ELEMENT_SET_NO": 999, "REV_AT_EPOCH": 93125, "BSTAR": 0.0033683317, "MEAN_MOTION_DOT": 0.00013462, "MEAN_MOTION_DDOT": 0}, "tle": {"line1": "1 33690U 99025DGB 25340.22675755  .00013462  00000+0  33683-2 0  9999", "line2": "2 33690  98.6133  78.4343 0030898  70.1588 290.2932 14.51282655931255"}}, "geometry": {"type": "Point", "coordinates": [-94.55327839397282, 35.810621998181645]}}, {"type": "Feature", "properties": {"norad_id": 33693, "name": "FENGYUN 1C DEB", "group": "fengyun-1c-debris", "lat": -52.36548255182858, "lon": -33.25927303054606, "alt_km": 1129.5473729350297, "timestamp": "2025-12-06T22:38:43.015157+00:00", "meta": {"OBJECT_NAME": "FENGYUN 1C DEB", "OBJECT_ID": "1999-025DGE", "EPOCH": "2025-12-06T10:59:58.745184", "MEAN_MOTION": 13.71285471, "ECCENTRICITY": 0.02263549, "INCLINATION": 99.2151, "RA_OF_ASC_NODE": 158.4283, "ARG_OF_PERICENTER": 15.2874, "MEAN_ANOMALY": 345.4968, "EPHEMERIS_TYPE": 0, "CLASSIFICATION_TYPE": "U", "NORAD_CAT_ID": 33693, "ELEMENT_SET_NO": 999, "REV_AT_EPOCH": 88145, "BSTAR": 0.0025801574, "MEAN_MOTION_DOT": 2.735e-05, "MEAN_MOTION_DDOT": 0}, "tle": {"line1": "1 33693U 99025DGE 25340.45831881  .00002735  00000+0  25802-2 0  9996", "line2": "2 33693  99.2151 158.4283 0226354  15.2874 345.4968 13.71285471881457"}}, "geometry": {"type": "Point", "coordinates": [-33.25927303054606, -52.36548255182858]}}]}